GLOBAL-2                
1 43812U 18099BG  26068.69955396  .00003970  00000+0  26145-3 0  9998
2 43812  97.3697 109.3280 0007454 127.1924 232.9986 15.08046936396919
STARLINK-4729           
1 53804U 22111AH  26068.71746098 -.00000037  00000+0  15780-4 0  9996
2 53804  53.2158 258.7790 0001326  89.1228 270.9916 15.08837677193892
